[Satellite]
VERSION=1.1
NAME=STARLINK-1145
NICKNAME=STARLINK-1145
TLE1=1 45066U 20006Y   20058.91667824  .00497623  00000-0  33584-2 0  9993
TLE2=2 45066  52.9957  89.6389 0001524  46.9970 272.5325 15.73094790  4982
STATUS=0
